[{"OBJECT_NAME":"KUIPER-00304","OBJECT_ID":"2026-072AC","EPOCH":"2026-04-14T20:00:01.999008","MEAN_MOTION":15.36397202,"ECCENTRICITY":0.00094,"INCLINATION":51.8666,"RA_OF_ASC_NODE":123.3912,"ARG_OF_PERICENTER":150.8013,"MEAN_ANOMALY":170.3813,"EPHEMERIS_TYPE":0,"CLASSIFICATION_TYPE":"U","NORAD_CAT_ID":68599,"ELEMENT_SET_NO":999,"REV_AT_EPOCH":278,"BSTAR":0.00060189,"MEAN_MOTION_DOT":0.00021399,"MEAN_MOTION_DDOT":0},{"OBJECT_NAME":"KUIPER-00317","OBJECT_ID":"2026-072AD","EPOCH":"2026-04-14T20:00:01.999008","MEAN_MOTION":15.36716657,"ECCENTRICITY":0.0008497,"INCLINATION":51.8687,"RA_OF_ASC_NODE":123.369,"ARG_OF_PERICENTER":143.0701,"MEAN_ANOMALY":189.2892,"EPHEMERIS_TYPE":0,"CLASSIFICATION_TYPE":"U","NORAD_CAT_ID":68600,"ELEMENT_SET_NO":999,"REV_AT_EPOCH":232,"BSTAR":0.0006038,"MEAN_MOTION_DOT":0.00021688,"MEAN_MOTION_DDOT":0},{"OBJECT_NAME":"KUIPER-00320","OBJECT_ID":"2026-072AE","EPOCH":"2026-04-14T20:00:01.999008","MEAN_MOTION":15.35907149,"ECCENTRICITY":0.0011145,"INCLINATION":51.8605,"RA_OF_ASC_NODE":123.428,"ARG_OF_PERICENTER":157.0956,"MEAN_ANOMALY":144.4697,"EPHEMERIS_TYPE":0,"CLASSIFICATION_TYPE":"U","NORAD_CAT_ID":68601,"ELEMENT_SET_NO":999,"REV_AT_EPOCH":277,"BSTAR":0.00060798,"MEAN_MOTION_DOT":0.00021289,"MEAN_MOTION_DDOT":0},{"OBJECT_NAME":"STP-S29A OBJECT A","OBJECT_ID":"2026-074A","EPOCH":"2026-04-14T14:42:01.671840","MEAN_MOTION":15.23205642,"ECCENTRICITY":0.0016209,"INCLINATION":60.0185,"RA_OF_ASC_NODE":62.0583,"ARG_OF_PERICENTER":312.7472,"MEAN_ANOMALY":47.2243,"EPHEMERIS_TYPE":0,"CLASSIFICATION_TYPE":"U","NORAD_CAT_ID":68627,"ELEMENT_SET_NO":999,"REV_AT_EPOCH":109,"BSTAR":0.00024128,"MEAN_MOTION_DOT":5.494e-5,"MEAN_MOTION_DDOT":0},{"OBJECT_NAME":"STP-S29A OBJECT B","OBJECT_ID":"2026-074B","EPOCH":"2026-04-14T20:59:19.879296","MEAN_MOTION":15.23310844,"ECCENTRICITY":0.0014627,"INCLINATION":60.0235,"RA_OF_ASC_NODE":61.0602,"ARG_OF_PERICENTER":316.0961,"MEAN_ANOMALY":43.8956,"EPHEMERIS_TYPE":0,"CLASSIFICATION_TYPE":"U","NORAD_CAT_ID":68628,"ELEMENT_SET_NO":999,"REV_AT_EPOCH":112,"BSTAR":0.00019862,"MEAN_MOTION_DOT":4.484e-5,"MEAN_MOTION_DDOT":0},{"OBJECT_NAME":"RAWHIDE-1","OBJECT_ID":"2026-074C","EPOCH":"2026-04-14T14:38:27.805056","MEAN_MOTION":15.23742519,"ECCENTRICITY":0.0017995,"INCLINATION":60.0223,"RA_OF_ASC_NODE":62.0539,"ARG_OF_PERICENTER":321.8498,"MEAN_ANOMALY":38.1307,"EPHEMERIS_TYPE":0,"CLASSIFICATION_TYPE":"U","NORAD_CAT_ID":68629,"ELEMENT_SET_NO":999,"REV_AT_EPOCH":109,"BSTAR":0.00026281,"MEAN_MOTION_DOT":6.115e-5,"MEAN_MOTION_DDOT":0},{"OBJECT_NAME":"STP-S29A OBJECT D","OBJECT_ID":"2026-074D","EPOCH":"2026-04-14T20:54:14.956416","MEAN_MOTION":15.24029815,"ECCENTRICITY":0.0016043,"INCLINATION":60.0227,"RA_OF_ASC_NODE":61.0416,"ARG_OF_PERICENTER":327.0633,"MEAN_ANOMALY":32.9447,"EPHEMERIS_TYPE":0,"CLASSIFICATION_TYPE":"U","NORAD_CAT_ID":68630,"ELEMENT_SET_NO":999,"REV_AT_EPOCH":112,"BSTAR":0.00014667,"MEAN_MOTION_DOT":3.311e-5,"MEAN_MOTION_DDOT":0},{"OBJECT_NAME":"STP-S29A OBJECT E","OBJECT_ID":"2026-074E","EPOCH":"2026-04-14T14:36:16.435584","MEAN_MOTION":15.24039937,"ECCENTRICITY":0.0016599,"INCLINATION":60.0222,"RA_OF_ASC_NODE":62.0459,"ARG_OF_PERICENTER":326.5424,"MEAN_ANOMALY":33.4607,"EPHEMERIS_TYPE":0,"CLASSIFICATION_TYPE":"U","NORAD_CAT_ID":68631,"ELEMENT_SET_NO":999,"REV_AT_EPOCH":109,"BSTAR":0.00013108,"MEAN_MOTION_DOT":2.929e-5,"MEAN_MOTION_DDOT":0},{"OBJECT_NAME":"RAWHIDE-2","OBJECT_ID":"2026-074F","EPOCH":"2026-04-14T14:33:03.502656","MEAN_MOTION":15.24550311,"ECCENTRICITY":0.0016984,"INCLINATION":60.0317,"RA_OF_ASC_NODE":62.048,"ARG_OF_PERICENTER":332.0614,"MEAN_ANOMALY":27.9554,"EPHEMERIS_TYPE":0,"CLASSIFICATION_TYPE":"U","NORAD_CAT_ID":68632,"ELEMENT_SET_NO":999,"REV_AT_EPOCH":108,"BSTAR":0.00024837,"MEAN_MOTION_DOT":5.905e-5,"MEAN_MOTION_DDOT":0},{"OBJECT_NAME":"STP-S29A OBJECT G","OBJECT_ID":"2026-074G","EPOCH":"2026-04-14T14:30:07.617312","MEAN_MOTION":15.249691,"ECCENTRICITY":0.0017644,"INCLINATION":60.0223,"RA_OF_ASC_NODE":62.0252,"ARG_OF_PERICENTER":338.4682,"MEAN_ANOMALY":21.5655,"EPHEMERIS_TYPE":0,"CLASSIFICATION_TYPE":"U","NORAD_CAT_ID":68633,"ELEMENT_SET_NO":999,"REV_AT_EPOCH":108,"BSTAR":0.00017247,"MEAN_MOTION_DOT":4.065e-5,"MEAN_MOTION_DDOT":0},{"OBJECT_NAME":"STP-S29A OBJECT H","OBJECT_ID":"2026-074H","EPOCH":"2026-04-14T03:26:57.329376","MEAN_MOTION":15.25340203,"ECCENTRICITY":0.00185419,"INCLINATION":60.0215,"RA_OF_ASC_NODE":63.778,"ARG_OF_PERICENTER":341.5997,"MEAN_ANOMALY":18.4411,"EPHEMERIS_TYPE":0,"CLASSIFICATION_TYPE":"U","NORAD_CAT_ID":68634,"ELEMENT_SET_NO":999,"REV_AT_EPOCH":102,"BSTAR":0.00021797538,"MEAN_MOTION_DOT":5.278e-5,"MEAN_MOTION_DDOT":0},{"OBJECT_NAME":"CANVAS","OBJECT_ID":"2026-074J","EPOCH":"2026-04-14T20:54:54.849024","MEAN_MOTION":15.23965149,"ECCENTRICITY":0.0018448,"INCLINATION":60.0238,"RA_OF_ASC_NODE":61.0472,"ARG_OF_PERICENTER":325.9625,"MEAN_ANOMALY":34.0271,"EPHEMERIS_TYPE":0,"CLASSIFICATION_TYPE":"U","NORAD_CAT_ID":68635,"ELEMENT_SET_NO":999,"REV_AT_EPOCH":113,"BSTAR":0.00028753,"MEAN_MOTION_DOT":6.765e-5,"MEAN_MOTION_DDOT":0},{"OBJECT_NAME":"HULIANWANG DIGUI-164","OBJECT_ID":"2026-076A","EPOCH":"2026-04-14T00:04:22.293984","MEAN_MOTION":13.8297178,"ECCENTRICITY":0.00075148,"INCLINATION":86.4938,"RA_OF_ASC_NODE":66.4743,"ARG_OF_PERICENTER":200.6007,"MEAN_ANOMALY":159.4859,"EPHEMERIS_TYPE":0,"CLASSIFICATION_TYPE":"U","NORAD_CAT_ID":68656,"ELEMENT_SET_NO":999,"REV_AT_EPOCH":72,"BSTAR":-0.0010283162,"MEAN_MOTION_DOT":-1.105e-5,"MEAN_MOTION_DDOT":0},{"OBJECT_NAME":"HULIANWANG DIGUI-165","OBJECT_ID":"2026-076B","EPOCH":"2026-04-14T08:44:58.545600","MEAN_MOTION":13.83030259,"ECCENTRICITY":0.00073054,"INCLINATION":86.4958,"RA_OF_ASC_NODE":66.3417,"ARG_OF_PERICENTER":198.2647,"MEAN_ANOMALY":161.8259,"EPHEMERIS_TYPE":0,"CLASSIFICATION_TYPE":"U","NORAD_CAT_ID":68657,"ELEMENT_SET_NO":999,"REV_AT_EPOCH":77,"BSTAR":0.00013422971,"MEAN_MOTION_DOT":1.64e-6,"MEAN_MOTION_DDOT":0},{"OBJECT_NAME":"HULIANWANG DIGUI-166","OBJECT_ID":"2026-076C","EPOCH":"2026-04-14T10:28:14.914272","MEAN_MOTION":13.83186131,"ECCENTRICITY":0.00067087,"INCLINATION":86.4899,"RA_OF_ASC_NODE":66.3056,"ARG_OF_PERICENTER":191.4958,"MEAN_ANOMALY":168.6058,"EPHEMERIS_TYPE":0,"CLASSIFICATION_TYPE":"U","NORAD_CAT_ID":68658,"ELEMENT_SET_NO":999,"REV_AT_EPOCH":78,"BSTAR":-0.00055728332,"MEAN_MOTION_DOT":-5.93e-6,"MEAN_MOTION_DDOT":0},{"OBJECT_NAME":"HULIANWANG DIGUI-167","OBJECT_ID":"2026-076D","EPOCH":"2026-04-14T08:43:18.935040","MEAN_MOTION":13.83320718,"ECCENTRICITY":0.00063944,"INCLINATION":86.4958,"RA_OF_ASC_NODE":66.3416,"ARG_OF_PERICENTER":183.6459,"MEAN_ANOMALY":176.4663,"EPHEMERIS_TYPE":0,"CLASSIFICATION_TYPE":"U","NORAD_CAT_ID":68659,"ELEMENT_SET_NO":999,"REV_AT_EPOCH":77,"BSTAR":-7.1329939e-5,"MEAN_MOTION_DOT":-6.1e-7,"MEAN_MOTION_DDOT":0},{"OBJECT_NAME":"HULIANWANG DIGUI-168","OBJECT_ID":"2026-076E","EPOCH":"2026-04-14T17:23:39.726240","MEAN_MOTION":13.83393617,"ECCENTRICITY":0.0006,"INCLINATION":86.4937,"RA_OF_ASC_NODE":66.2029,"ARG_OF_PERICENTER":180.9604,"MEAN_ANOMALY":179.1553,"EPHEMERIS_TYPE":0,"CLASSIFICATION_TYPE":"U","NORAD_CAT_ID":68660,"ELEMENT_SET_NO":999,"REV_AT_EPOCH":81,"BSTAR":-0.00052521,"MEAN_MOTION_DOT":-5.6e-6,"MEAN_MOTION_DDOT":0},{"OBJECT_NAME":"CZ-6A R/B","OBJECT_ID":"2026-076F","EPOCH":"2026-04-14T21:37:25.396896","MEAN_MOTION":14.09391809,"ECCENTRICITY":0.0107286,"INCLINATION":86.5063,"RA_OF_ASC_NODE":66.0465,"ARG_OF_PERICENTER":92.051,"MEAN_ANOMALY":269.2962,"EPHEMERIS_TYPE":0,"CLASSIFICATION_TYPE":"U","NORAD_CAT_ID":68661,"ELEMENT_SET_NO":999,"REV_AT_EPOCH":86,"BSTAR":3.0829e-5,"MEAN_MOTION_DOT":7.6e-7,"MEAN_MOTION_DDOT":0},{"OBJECT_NAME":"GUOWANG TEST OBJECT A","OBJECT_ID":"2026-078A","EPOCH":"2026-04-14T19:32:08.341152","MEAN_MOTION":13.68810431,"ECCENTRICITY":0.0008163,"INCLINATION":86.4974,"RA_OF_ASC_NODE":304.6979,"ARG_OF_PERICENTER":278.3038,"MEAN_ANOMALY":81.7195,"EPHEMERIS_TYPE":0,"CLASSIFICATION_TYPE":"U","NORAD_CAT_ID":68687,"ELEMENT_SET_NO":999,"REV_AT_EPOCH":44,"BSTAR":-0.0025342,"MEAN_MOTION_DOT":-2.164e-5,"MEAN_MOTION_DDOT":0},{"OBJECT_NAME":"GUOWANG TEST OBJECT B","OBJECT_ID":"2026-078B","EPOCH":"2026-04-14T19:58:24.786048","MEAN_MOTION":14.21572668,"ECCENTRICITY":0.0252401,"INCLINATION":86.5865,"RA_OF_ASC_NODE":304.6611,"ARG_OF_PERICENTER":14.5179,"MEAN_ANOMALY":346.3086,"EPHEMERIS_TYPE":0,"CLASSIFICATION_TYPE":"U","NORAD_CAT_ID":68688,"ELEMENT_SET_NO":999,"REV_AT_EPOCH":46,"BSTAR":9.4345e-5,"MEAN_MOTION_DOT":3.07e-6,"MEAN_MOTION_DDOT":0},{"OBJECT_NAME":"CYGNUS NG-24","OBJECT_ID":"2026-079A","EPOCH":"2026-04-14T12:31:22.172160","MEAN_MOTION":15.4891336,"ECCENTRICITY":0.00064948,"INCLINATION":51.6319,"RA_OF_ASC_NODE":255.1813,"ARG_OF_PERICENTER":311.8952,"MEAN_ANOMALY":48.1482,"EPHEMERIS_TYPE":0,"CLASSIFICATION_TYPE":"U","NORAD_CAT_ID":68689,"ELEMENT_SET_NO":999,"REV_AT_EPOCH":39,"BSTAR":0.00012575075,"MEAN_MOTION_DOT":6.465e-5,"MEAN_MOTION_DDOT":0},{"OBJECT_NAME":"GUOWANG TEST OBJECT C","OBJECT_ID":"2026-078C","EPOCH":"2026-04-14T21:03:53.025984","MEAN_MOTION":14.61713743,"ECCENTRICITY":0.0444789,"INCLINATION":86.6405,"RA_OF_ASC_NODE":304.6099,"ARG_OF_PERICENTER":15.0543,"MEAN_ANOMALY":346.3416,"EPHEMERIS_TYPE":0,"CLASSIFICATION_TYPE":"U","NORAD_CAT_ID":68690,"ELEMENT_SET_NO":999,"REV_AT_EPOCH":48,"BSTAR":0.00021595,"MEAN_MOTION_DOT":4.762e-5,"MEAN_MOTION_DDOT":0},{"OBJECT_NAME":"JILIN GAOFEN OBJECT A","OBJECT_ID":"2026-080A","EPOCH":"2026-04-14T09:52:18.906816","MEAN_MOTION":15.08745465,"ECCENTRICITY":0.0012776,"INCLINATION":97.6674,"RA_OF_ASC_NODE":180.0709,"ARG_OF_PERICENTER":291.1151,"MEAN_ANOMALY":68.8711,"EPHEMERIS_TYPE":0,"CLASSIFICATION_TYPE":"U","NORAD_CAT_ID":68691,"ELEMENT_SET_NO":999,"REV_AT_EPOCH":4,"BSTAR":4.9998e-5,"MEAN_MOTION_DOT":7.21e-6,"MEAN_MOTION_DDOT":0}]
